KUZGTU 1 (RS47S)        
1 57217U 23091AV  26183.59941079  .00012888  00000+0  44239-3 0  9992
2 57217  97.5054 248.2389 0011385  49.3415 310.8813 15.30218136166731
SONATE-2                
1 59112U 24043Q   26183.41196139  .00045160  00000+0  55987-3 0  9997
2 59112  97.5549 334.7548 0007207 146.6321 213.5391 15.59896965130261
MESAT1                  
1 60209U 24125G   26183.58951883  .00059526  00000+0  60393-3 0  9998
2 60209  97.2264  41.4395 0010893 152.1911 207.9933 15.64971704111972
OOV-CUBE (TUBSAT-30)    
1 60240U 24128F   26183.55879411  .00002304  00000+0  18357-3 0  9994
2 60240  61.9934 171.9698 0042694 137.1235 223.3199 15.02830240108423
COLIBRI-S (RS67S)       
1 61746U 24199M   26183.64027701  .00023799  00000+0  45013-3 0  9991
2 61746  97.2966  57.6399 0007298 208.4722 151.6132 15.48372343139805
HORS 3 (RS81S)          
1 61753U 24199U   26183.59332092  .00037344  00000+0  53521-3 0  9999
2 61753  97.2949  59.7505 0005334 198.4210 161.6853 15.56063938139958
HORS 4 (RS82S)          
1 61754U 24199V   26183.63385168  .00051052  00000+0  60212-3 0  9994
2 61754  97.2892  61.0967 0005439 186.1869 173.9322 15.61192645140058
SIT-2086                
1 61764U 24199AF  26183.59030466  .00038752  00000+0  59481-3 0  9996
2 61764  97.2905  60.1706 0006642 184.1325 175.9875 15.54169174136825
HYPERVIEW 1G (RS66S)    
1 61772U 24199AP  26183.47245403  .00189284  00000+0  97887-3 0  9990
2 61772  97.2837  64.0110 0007167 174.0345 186.1009 15.80532468137084
ALTAIR (RS65S)          
1 61779U 24199AW  26183.60519748  .00009969  00000+0  27424-3 0  9999
2 61779  97.3005  52.8556 0010915 246.3878 113.6221 15.37321946139483
ASRTU-1 (AO-123)        
1 61781U 24199AY  26183.60693188  .00008194  00000+0  23632-3 0  9999
2 61781  97.2976  52.1391 0011977 250.3708 109.6243 15.35895448136294
SAMSAT-IONOSPHERE (RS7*)
1 61784U 24199BB  26183.59970972  .00043658  00000+0  55959-3 0  9990
2 61784  97.2914  59.8621 0007581 204.2480 155.8421 15.59017146139965
RTU MIREA 1 (RS51S)     
1 61785U 24199BC  26183.58835465  .00059020  00000+0  65182-3 0  9996
2 61785  97.2903  60.7650 0007664 197.1687 162.9313 15.62846923136871
TEVEL2-4                
1 63213U 25052D   26183.63326545  .00020072  00000+0  58942-3 0  9994
2 63213  97.3884  80.0542 0004579  74.9735 285.2015 15.35163406 72483
TEVEL2-5                
1 63214U 25052E   26183.45996829  .00021513  00000+0  63523-3 0  9995
2 63214  97.3883  79.8240 0004573  76.8481 283.3272 15.34976504 72458
TEVEL2-6                
1 63215U 25052F   26183.21188050  .00021402  00000+0  63291-3 0  9998
2 63215  97.3892  79.5600 0004421  78.1313 282.0426 15.34930714 72413
TEVEL2-1                
1 63217U 25052H   26183.44186486  .00021382  00000+0  64322-3 0  9999
2 63217  97.3860  79.3967 0004939  84.7539 275.4267 15.34387675 72434
TEVEL2-3                
1 63218U 25052J   26183.24029755  .00021076  00000+0  63306-3 0  9994
2 63218  97.3861  79.2186 0004748  86.3332 273.8453 15.34438788 72403
TEVEL2-2                
1 63219U 25052K   26183.63772496  .00019276  00000+0  57995-3 0  9991
2 63219  97.3858  79.5953 0004947  84.8193 275.3614 15.34403117 72464
OTP-2                   
1 63235U 25052AB  26183.45917994  .00009046  00000+0  37378-3 0  9990
2 63235  97.3853  75.6616 0008232 105.0743 255.1406 15.24193128 72190
TEVEL2-9                
1 63237U 25052AD  26183.43940054  .00019073  00000+0  61120-3 0  9996
2 63237  97.3923  78.7387 0008263  91.0413 269.1776 15.32374933 72369
TEVEL2-7                
1 63238U 25052AE  26183.61392133  .00016810  00000+0  54425-3 0  9992
2 63238  97.3926  78.8223 0008367  90.6400 269.5801 15.32071003 72386
TEVEL2-8                
1 63239U 25052AF  26183.42638086  .00018245  00000+0  59074-3 0  9991
2 63239  97.3923  78.6114 0008414  91.6025 268.6181 15.32051587 72351
INNOSAT 16 (RS92S7)     
1 64878U 25155C   26183.61318560  .00006472  00000+0  25694-3 0  9998
2 64878  97.4576 150.6937 0012097 125.9307 234.3055 15.25621942 83022
GEOSCAN 6 (RS92S6)      
1 64879U 25155D   26183.61346590  .00010646  00000+0  36364-3 0  9997
2 64879  97.4567 152.2283 0009787 117.0127 243.2114 15.30442115 83124
GEOSCAN 1 (RS92S1)      
1 64880U 25155E   26183.60976584  .00011964  00000+0  40042-3 0  9992
2 64880  97.4563 152.3862 0009751 117.0921 243.1316 15.31071088 83131
239ALFEROV (RS61S)      
1 64881U 25155F   26183.62217922  .00015008  00000+0  46696-3 0  9993
2 64881  97.4563 153.0130 0009424 115.9393 244.2822 15.33362240 83178
GEOSCAN 2 (RS92S2)      
1 64890U 25155Q   26183.60076288  .00012075  00000+0  40093-3 0  9995
2 64890  97.4562 152.5356 0009198 106.6010 253.6242 15.31330078 83141
GEOSCAN 5 (RS92S5)      
1 64891U 25155R   26183.60802636  .00015726  00000+0  48449-3 0  9999
2 64891  97.4555 153.1419 0008368 119.5288 240.6789 15.33675558 83182
GEOSCAN 4 (RS92S4)      
1 64892U 25155S   26183.59063772  .00015943  00000+0  48862-3 0  9998
2 64892  97.4559 153.1773 0008374 119.3305 240.8775 15.33837243 83183
