OBJECT_NAME,OBJECT_ID,EPOCH,MEAN_MOTION,ECCENTRICITY,INCLINATION,RA_OF_ASC_NODE,ARG_OF_PERICENTER,MEAN_ANOMALY,EPHEMERIS_TYPE,CLASSIFICATION_TYPE,NORAD_CAT_ID,ELEMENT_SET_NO,REV_AT_EPOCH,BSTAR,MEAN_MOTION_DOT,MEAN_MOTION_DDOT
KUZGTU 1 (RS47S),2023-091AV,2026-07-02T14:23:09.092256,15.30218136,.00113851,97.5054,248.2389,49.3415,310.8813,0,U,57217,999,16673,.4423865E-3,.12888E-3,0
SONATE-2,2024-043Q,2026-07-02T09:53:13.464096,15.59896965,.00072078,97.5549,334.7548,146.6321,213.5391,0,U,59112,999,13026,.55987042E-3,.4516E-3,0
MESAT1,2024-125G,2026-07-02T14:08:54.426912,15.64971704,.00108934,97.2264,41.4395,152.1911,207.9933,0,U,60209,999,11197,.60392991E-3,.59526E-3,0
OOV-CUBE (TUBSAT-30),2024-128F,2026-07-02T13:24:39.811104,15.02830240,.00426943,61.9934,171.9698,137.1235,223.3199,0,U,60240,999,10842,.18357434E-3,.2304E-4,0
COLIBRI-S (RS67S),2024-199M,2026-07-02T15:21:59.933664,15.48372343,.00072984,97.2966,57.6399,208.4722,151.6132,0,U,61746,999,13980,.45012796E-3,.23799E-3,0
HORS 3 (RS81S),2024-199U,2026-07-02T14:14:22.927488,15.56063938,.00053343,97.2949,59.7505,198.4210,161.6853,0,U,61753,999,13995,.53521079E-3,.37344E-3,0
HORS 4 (RS82S),2024-199V,2026-07-02T15:12:44.785152,15.61192645,.00054392,97.2892,61.0967,186.1869,173.9322,0,U,61754,999,14005,.60211662E-3,.51052E-3,0
SIT-2086,2024-199AF,2026-07-02T14:10:02.322624,15.54169174,.00066423,97.2905,60.1706,184.1325,175.9875,0,U,61764,999,13682,.59480916E-3,.38752E-3,0
HYPERVIEW 1G (RS66S),2024-199AP,2026-07-02T11:20:20.028192,15.80532468,.00071676,97.2837,64.0110,174.0345,186.1009,0,U,61772,999,13708,.97887374E-3,.189284E-2,0
ALTAIR (RS65S),2024-199AW,2026-07-02T14:31:29.062272,15.37321946,.00109159,97.3005,52.8556,246.3878,113.6221,0,U,61779,999,13948,.27424416E-3,.9969E-4,0
ASRTU-1 (AO-123),2024-199AY,2026-07-02T14:33:58.914432,15.35895448,.00119777,97.2976,52.1391,250.3708,109.6243,0,U,61781,999,13629,.23632483E-3,.8194E-4,0
SAMSAT-IONOSPHERE (RS75S),2024-199BB,2026-07-02T14:23:34.919808,15.59017146,.00075812,97.2914,59.8621,204.2480,155.8421,0,U,61784,999,13996,.55958608E-3,.43658E-3,0
RTU MIREA 1 (RS51S),2024-199BC,2026-07-02T14:07:13.841760,15.62846923,.00076643,97.2903,60.7650,197.1687,162.9313,0,U,61785,999,13687,.65181713E-3,.5902E-3,0
TEVEL2-4,2025-052D,2026-07-02T15:11:54.134880,15.35163406,.00045793,97.3884,80.0542,74.9735,285.2015,0,U,63213,999,7248,.58942139E-3,.20072E-3,0
TEVEL2-5,2025-052E,2026-07-02T11:02:21.260256,15.34976504,.0004573,97.3883,79.8240,76.8481,283.3272,0,U,63214,999,7245,.63522887E-3,.21513E-3,0
TEVEL2-6,2025-052F,2026-07-02T05:05:06.475200,15.34930714,.0004421,97.3892,79.5600,78.1313,282.0426,0,U,63215,999,7241,.63290576E-3,.21402E-3,0
TEVEL2-1,2025-052H,2026-07-02T10:36:17.123904,15.34387675,.00049396,97.3860,79.3967,84.7539,275.4267,0,U,63217,999,7243,.64321524E-3,.21382E-3,0
TEVEL2-3,2025-052J,2026-07-02T05:46:01.708320,15.34438788,.00047481,97.3861,79.2186,86.3332,273.8453,0,U,63218,999,7240,.63306225E-3,.21076E-3,0
TEVEL2-2,2025-052K,2026-07-02T15:18:19.436544,15.34403117,.00049471,97.3858,79.5953,84.8193,275.3614,0,U,63219,999,7246,.57994928E-3,.19276E-3,0
OTP-2,2025-052AB,2026-07-02T11:01:13.146816,15.24193128,.00082322,97.3853,75.6616,105.0743,255.1406,0,U,63235,999,7219,.37378003E-3,.9046E-4,0
TEVEL2-9,2025-052AD,2026-07-02T10:32:44.206656,15.32374933,.00082636,97.3923,78.7387,91.0413,269.1776,0,U,63237,999,7236,.61119887E-3,.19073E-3,0
TEVEL2-7,2025-052AE,2026-07-02T14:44:02.802912,15.32071003,.00083676,97.3926,78.8223,90.6400,269.5801,0,U,63238,999,7238,.54425295E-3,.1681E-3,0
TEVEL2-8,2025-052AF,2026-07-02T10:13:59.306304,15.32051587,.00084144,97.3923,78.6114,91.6025,268.6181,0,U,63239,999,7235,.59073555E-3,.18245E-3,0
INNOSAT 16 (RS92S7),2025-155C,2026-07-02T14:42:59.235840,15.25621942,.00120978,97.4576,150.6937,125.9307,234.3055,0,U,64878,999,8302,.25694269E-3,.6472E-4,0
GEOSCAN 6 (RS92S6),2025-155D,2026-07-02T14:43:23.453760,15.30442115,.00097876,97.4567,152.2283,117.0127,243.2114,0,U,64879,999,8312,.36363624E-3,.10646E-3,0
GEOSCAN 1 (RS92S1),2025-155E,2026-07-02T14:38:03.768576,15.31071088,.00097511,97.4563,152.3862,117.0921,243.1316,0,U,64880,999,8313,.40042264E-3,.11964E-3,0
239ALFEROV (RS61S),2025-155F,2026-07-02T14:55:56.284608,15.33362240,.00094245,97.4563,153.0130,115.9393,244.2822,0,U,64881,999,8317,.46695803E-3,.15008E-3,0
GEOSCAN 2 (RS92S2),2025-155Q,2026-07-02T14:25:05.912832,15.31330078,.00091981,97.4562,152.5356,106.6010,253.6242,0,U,64890,999,8314,.40092561E-3,.12075E-3,0
GEOSCAN 5 (RS92S5),2025-155R,2026-07-02T14:35:33.477504,15.33675558,.00083686,97.4555,153.1419,119.5288,240.6789,0,U,64891,999,8318,.48449477E-3,.15726E-3,0
GEOSCAN 4 (RS92S4),2025-155S,2026-07-02T14:10:31.099008,15.33837243,.00083741,97.4559,153.1773,119.3305,240.8775,0,U,64892,999,8318,.48861808E-3,.15943E-3,0
